PROBA-1                 
1 26958U 01049B   26176.16819001  .00003886  00000+0  25128-3 0  9997
2 26958  97.9602 184.9791 0056320  95.7794 264.9858 15.07528056344823
CUTE-1 (CO-55)          
1 27844U 03031E   26175.97519230  .00000261  00000+0  13189-3 0  9992
2 27844  98.6736 184.4362 0010007 156.0422 204.1225 14.24339992192781
CUBESAT XI-IV (CO-57)   
1 27848U 03031J   26175.96755847  .00000227  00000+0  11865-3 0  9992
2 27848  98.6767 184.1351 0009537 174.0960 186.0333 14.23624582192483
APRIZESAT 4             
1 35684U 09041D   26176.14652463  .00000593  00000+0  77388-4 0  9996
2 35684  98.1409 251.6256 0042011 296.5869  63.1042 14.83888656912543
APRIZESAT 3             
1 35686U 09041F   26176.19075926  .00001232  00000+0  11073-3 0  9995
2 35686  98.2074 329.7983 0062622  41.6843 318.9124 14.96265947917575
PROBA-2                 
1 36037U 09059B   26176.08088247  .00000198  00000+0  56668-4 0  9993
2 36037  98.2452 359.3242 0011962 255.0559 104.9314 14.54865515882676
APRIZESAT 5             
1 37792U 11044E   26176.04670714  .00000971  00000+0  12984-3 0  9992
2 37792  98.2452 109.3098 0051694 338.9768  20.9317 14.81091206799952
APRIZESAT 6             
1 37793U 11044F   26174.71181382  .00000570  00000+0  87602-4 0  9998
2 37793  98.2358  85.3444 0044380  65.7980 320.0108 14.76924027798110
PROBA-V                 
1 39159U 13021A   26176.20189845  .00000077  00000+0  51922-4 0  9999
2 39159  98.3588 154.4130 0005379 105.0732 255.1043 14.23598638682252
APRIZESAT 7             
1 39416U 13066A   26175.13081378  .00000767  00000+0  81259-4 0  9999
2 39416  97.7710 128.2509 0035582 185.7916 174.2897 14.91575729682265
APRIZESAT 8             
1 39425U 13066K   26176.07824950  .00000805  00000+0  93169-4 0  9990
2 39425  97.8222 123.4362 0044354 259.6873  99.9341 14.87665274680847
BUGSAT-1 (TITA)         
1 40014U 14033E   26176.15682225  .00006028  00000+0  31753-3 0  9990
2 40014  98.0428 269.1719 0028621 151.3376 208.9435 15.15663575657049
SAUDISAT 4              
1 40016U 14033G   26175.96385747  .00000558  00000+0  80101-4 0  9993
2 40016  97.7592 321.8297 0045844  49.3968 311.1218 14.79553604647220
APRIZESAT 9             
1 40018U 14033J   26175.19864664  .00000621  00000+0  98431-4 0  9996
2 40018  97.9068 308.2262 0066248 176.5862 183.5812 14.74223148644590
APRIZESAT 10            
1 40019U 14033K   26176.15388124  .00000473  00000+0  82167-4 0  9990
2 40019  97.9657 302.9360 0077503 247.9472 111.3491 14.70889434643426
TECHDEMOSAT-1 (TDS-1)   
1 40076U 14037H   26176.22513105  .00008615  00000+0  48657-3 0  9995
2 40076  98.3817 169.2350 0004874 228.6186 131.4624 15.13400684649447
TECHNOSAT               
1 42829U 17042E   26176.16131604  .00003185  00000+0  22772-3 0  9992
2 42829  97.4295 333.5164 0019336  69.4707 290.8593 15.05006221487909
FLYING LAPTOP           
1 42831U 17042G   26176.18432562  .00002482  00000+0  19722-3 0  9994
2 42831  97.4723 331.4110 0019945  96.2531 264.0966 15.01190382487652
HAWK-A                  
1 43765U 18099H   26175.89551819  .00006880  00000+0  27669-3 0  9993
2 43765  97.3914 228.0308 0033112 257.2937 102.4598 15.24721850414270
HAWK-B                  
1 43794U 18099AN  26176.12336850  .00006227  00000+0  26531-3 0  9990
2 43794  97.3963 227.6541 0030238 275.5351  84.2437 15.22902052414248
HAWK-C                  
1 43799U 18099AT  26176.11650248  .00008490  00000+0  30484-3 0  9990
2 43799  97.3891 229.2004 0038759 256.4332 103.2588 15.28202356415121
SALSAT                  
1 46495U 20068K   26175.99443822  .00007962  00000+0  27767-3 0  9991
2 46495  97.8853 179.5347 0007812 274.8629  85.1718 15.29898993316555
HAWK-2C                 
1 47502U 21006CT  26176.10686699  .00007387  00000+0  22144-3 0  9994
2 47502  97.2280 220.2588 0007554 159.4355 200.7194 15.34750490300710
HAWK-2A                 
1 47505U 21006CW  26176.10928270  .00007311  00000+0  21910-3 0  9998
2 47505  97.2324 220.9437 0007006 162.1843 197.9648 15.34764970300716
HAWK-2B                 
1 47508U 21006CZ  26176.16953331  .00008454  00000+0  25213-3 0  9992
2 47508  97.2190 219.3214 0007582 160.7475 199.4056 15.34866046300727
HAWK-3B                 
1 48931U 21059BE  26176.10076897  .00053673  00000+0  44263-3 0  9997
2 48931  97.6658  13.5609 0003099 288.6727  71.4197 15.70194290279097
HAWK-3C                 
1 48948U 21059BX  26176.10044713  .00053062  00000+0  43762-3 0  9992
2 48948  97.6778  19.2601 0003313 291.3234  68.7673 15.70194315279092
HAWK-3A                 
1 48957U 21059CG  26176.10029715  .00053307  00000+0  43975-3 0  9995
2 48957  97.6724  16.4581 0003336 291.9727  68.1179 15.70187020279097
HAWK-5C                 
1 52754U 22057Y   26176.17052531  .00021991  00000+0  37123-3 0  9995
2 52754  97.6603 336.3540 0004409  57.8071 302.3608 15.51650119227585
HAWK-5B                 
1 52756U 22057AA  26176.10587514  .00021805  00000+0  36807-3 0  9996
2 52756  97.6612 334.6351 0005084  50.4451 309.7249 15.51649750227579
