OBJECT_NAME,OBJECT_ID,EPOCH,MEAN_MOTION,ECCENTRICITY,INCLINATION,RA_OF_ASC_NODE,ARG_OF_PERICENTER,MEAN_ANOMALY,EPHEMERIS_TYPE,CLASSIFICATION_TYPE,NORAD_CAT_ID,ELEMENT_SET_NO,REV_AT_EPOCH,BSTAR,MEAN_MOTION_DOT,MEAN_MOTION_DDOT
PROBA-1,2001-049B,2026-06-25T04:02:11.616864,15.07528056,.005632,97.9602,184.9791,95.7794,264.9858,0,U,26958,999,34482,.25128E-3,.3886E-4,0
CUTE-1 (CO-55),2003-031E,2026-06-24T23:24:16.614720,14.24339992,.0010007,98.6736,184.4362,156.0422,204.1225,0,U,27844,999,19278,.13189E-3,.261E-5,0
CUBESAT XI-IV (CO-57),2003-031J,2026-06-24T23:13:17.051808,14.23624582,.0009537,98.6767,184.1351,174.0960,186.0333,0,U,27848,999,19248,.11865E-3,.227E-5,0
APRIZESAT 4,2009-041D,2026-06-25T03:30:59.728032,14.83888656,.0042011,98.1409,251.6256,296.5869,63.1042,0,U,35684,999,91254,.77388E-4,.593E-5,0
APRIZESAT 3,2009-041F,2026-06-25T04:34:41.600064,14.96265947,.0062622,98.2074,329.7983,41.6843,318.9124,0,U,35686,999,91757,.11073E-3,.1232E-4,0
PROBA-2,2009-059B,2026-06-25T01:56:28.245408,14.54865515,.0011962,98.2452,359.3242,255.0559,104.9314,0,U,36037,999,88267,.56668E-4,.198E-5,0
APRIZESAT 5,2011-044E,2026-06-25T01:07:15.496896,14.81091206,.0051694,98.2452,109.3098,338.9768,20.9317,0,U,37792,999,79995,.12984E-3,.971E-5,0
APRIZESAT 6,2011-044F,2026-06-23T17:05:00.714048,14.76924027,.00443801,98.2358,85.3444,65.7980,320.0108,0,U,37793,999,79811,.87602025E-4,.57E-5,0
PROBA-V,2013-021A,2026-06-25T04:50:44.026080,14.23598638,.0005379,98.3588,154.4130,105.0732,255.1043,0,U,39159,999,68225,.51922E-4,.77E-6,0
APRIZESAT 7,2013-066A,2026-06-24T03:08:22.310592,14.91575729,.00355824,97.7710,128.2509,185.7916,174.2897,0,U,39416,999,68226,.81258736E-4,.767E-5,0
APRIZESAT 8,2013-066K,2026-06-25T01:52:40.756800,14.87665274,.0044354,97.8222,123.4362,259.6873,99.9341,0,U,39425,999,68084,.93169E-4,.805E-5,0
BUGSAT-1 (TITA),2014-033E,2026-06-25T03:45:49.442400,15.15663575,.0028621,98.0428,269.1719,151.3376,208.9435,0,U,40014,999,65704,.31753E-3,.6028E-4,0
SAUDISAT 4,2014-033G,2026-06-24T23:07:57.285408,14.79553604,.0045844,97.7592,321.8297,49.3968,311.1218,0,U,40016,999,64722,.80101E-4,.558E-5,0
APRIZESAT 9,2014-033J,2026-06-24T04:46:03.069696,14.74223148,.00662489,97.9068,308.2262,176.5862,183.5812,0,U,40018,999,64459,.98430718E-4,.621E-5,0
APRIZESAT 10,2014-033K,2026-06-25T03:41:35.339136,14.70889434,.0077503,97.9657,302.9360,247.9472,111.3491,0,U,40019,999,64342,.82167E-4,.473E-5,0
TECHDEMOSAT-1 (TDS-1),2014-037H,2026-06-25T05:24:11.322720,15.13400684,.0004874,98.3817,169.2350,228.6186,131.4624,0,U,40076,999,64944,.48657E-3,.8615E-4,0
TECHNOSAT,2017-042E,2026-06-25T03:52:17.705856,15.05006221,.0019336,97.4295,333.5164,69.4707,290.8593,0,U,42829,999,48790,.22772E-3,.3185E-4,0
FLYING LAPTOP,2017-042G,2026-06-25T04:25:25.733568,15.01190382,.0019945,97.4723,331.4110,96.2531,264.0966,0,U,42831,999,48765,.19722E-3,.2482E-4,0
HAWK-A,2018-099H,2026-06-24T21:29:32.771616,15.24721850,.0033112,97.3914,228.0308,257.2937,102.4598,0,U,43765,999,41427,.27669E-3,.688E-4,0
HAWK-B,2018-099AN,2026-06-25T02:57:39.038400,15.22902052,.0030238,97.3963,227.6541,275.5351,84.2437,0,U,43794,999,41424,.26531E-3,.6227E-4,0
HAWK-C,2018-099AT,2026-06-25T02:47:45.814272,15.28202356,.0038759,97.3891,229.2004,256.4332,103.2588,0,U,43799,999,41512,.30484E-3,.849E-4,0
SALSAT,2020-068K,2026-06-24T23:51:59.462208,15.29898993,.0007812,97.8853,179.5347,274.8629,85.1718,0,U,46495,999,31655,.27767E-3,.7962E-4,0
HAWK-2C,2021-006CT,2026-06-25T02:33:53.307936,15.34750490,.0007554,97.2280,220.2588,159.4355,200.7194,0,U,47502,999,30071,.22144E-3,.7387E-4,0
HAWK-2A,2021-006CW,2026-06-25T02:37:22.025280,15.34764970,.0007006,97.2324,220.9437,162.1843,197.9648,0,U,47505,999,30071,.2191E-3,.7311E-4,0
HAWK-2B,2021-006CZ,2026-06-25T04:04:07.677984,15.34866046,.0007582,97.2190,219.3214,160.7475,199.4056,0,U,47508,999,30072,.25213E-3,.8454E-4,0
HAWK-3B,2021-059BE,2026-06-25T02:25:06.439008,15.70194290,.0003099,97.6658,13.5609,288.6727,71.4197,0,U,48931,999,27909,.44263E-3,.53673E-3,0
HAWK-3C,2021-059BX,2026-06-25T02:24:38.632032,15.70194315,.0003313,97.6778,19.2601,291.3234,68.7673,0,U,48948,999,27909,.43762E-3,.53062E-3,0
HAWK-3A,2021-059CG,2026-06-25T02:24:25.673760,15.70187020,.0003336,97.6724,16.4581,291.9727,68.1179,0,U,48957,999,27909,.43975E-3,.53307E-3,0
HAWK-5C,2022-057Y,2026-06-25T04:05:33.386784,15.51650119,.0004409,97.6603,336.3540,57.8071,302.3608,0,U,52754,999,22758,.37123E-3,.21991E-3,0
HAWK-5B,2022-057AA,2026-06-25T02:32:27.612096,15.51649750,.0005084,97.6612,334.6351,50.4451,309.7249,0,U,52756,999,22757,.36807E-3,.21805E-3,0
